IRIDIUM 36              
1 24967U 97056C   24302.89128889  .00001892  00000+0  63023-3 0  9995
2 24967  86.3922 270.1184 0002517  84.1591 275.9893 14.37159788418993
IRIDIUM 39              
1 25042U 97069D   24303.12025601  .00002829  00000+0  74719-3 0  9994
2 25042  86.3878 310.2165 0018180   5.9868 354.1550 14.48518314415762
IRIDIUM 38              
1 25043U 97069E   24302.78558433  .00001720  00000+0  56659-3 0  9992
2 25043  86.3953 330.5397 0003812 113.1267 247.0332 14.37646659412701
IRIDIUM 42              
1 25077U 97077A   24302.85854744  .00001629  00000+0  55517-3 0  9990
2 25077  86.3970 336.3924 0002620 106.0184 254.1301 14.35918838407991
IRIDIUM 44              
1 25078U 97077B   24302.80979404  .00001897  00000+0  59921-3 0  9997
2 25078  86.3931 318.9527 0004042  80.5613 279.6042 14.39767891410406
IRIDIUM 45              
1 25104U 97082A   24302.86581022  .00037834  00000+0  17826-2 0  9991
2 25104  86.3680 159.1712 0145607 110.5186 251.1748 15.10337497416982
IRIDIUM 24              
1 25105U 97082B   24302.93919677  .00001779  00000+0  54039-3 0  9998
2 25105  86.3965 178.2933 0013153 116.2443 244.0110 14.41605682410148
IRIDIUM 51              
1 25262U 98018A   24302.91208980  .00056128  00000+0  20731-2 0  9997
2 25262  86.3955 168.5456 0127238  47.6587 313.5348 15.20149949411669
